STARLINK-32471          
1 61968U 24210K   26068.30222462  .00035320  00000+0  12879-2 0  9993
2 61968  42.9997 174.8458 0002720 301.3663  58.6923 15.27553156 74949
LIZZIESAT-2 (LS-2)      
1 62383U 24247G   26068.49140277  .00009388  00000+0  34517-3 0  9997
2 62383  44.9909 117.0823 0004092 327.5136  32.5495 15.28222796 67716
